STARLINK-34292          
1 64390U 25127W   26067.63461362  .00040724  00000+0  14807-2 0  9999
2 64390  43.0007 185.9187 0002143 286.8262  73.2355 15.27591666 42303
BANDWAGON-4 OBJECT M    
1 66304U 25248M   26068.03503276  .00023645  00000+0  95704-3 0  9995
2 66304  45.4108 294.9904 0012944 207.5285 152.4918 15.24295413 18037
